{
  "norad_id": 60918,
  "name": "STARLINK-32317",
  "history": [
    {
      "epoch": "2026-03-28T17:07:09.106176Z",
      "apogee_km": 476.1512964871181,
      "perigee_km": 474.3358359751237,
      "latitude_deg": -1.5054073705782319e-05,
      "longitude_deg": 112.83885012686854,
      "height_km": 475.7849105531494,
      "semi_major_axis_km": 6853.380566231121,
      "eccentricity": 0.00013245,
      "inclination_deg": 53.1609,
      "raan_deg": 195.7566,
      "arg_perigee_deg": 66.8473,
      "mean_anomaly_deg": 293.2667,
      "mean_motion_rev_day": 15.30190456
    },
    {
      "epoch": "2026-03-30T13:00:38.810304Z",
      "apogee_km": 476.1904802031286,
      "perigee_km": 474.33773174813905,
      "latitude_deg": 2.6186922546797606e-07,
      "longitude_deg": 164.17003203713523,
      "height_km": 476.03004762466423,
      "semi_major_axis_km": 6853.401105975633,
      "eccentricity": 0.00013517,
      "inclination_deg": 53.1606,
      "raan_deg": 187.2641,
      "arg_perigee_deg": 81.8017,
      "mean_anomaly_deg": 278.3137,
      "mean_motion_rev_day": 15.30183577
    },
    {
      "epoch": "2026-03-30T16:08:45.156768Z",
      "apogee_km": 476.14489295640396,
      "perigee_km": 474.37493466944306,
      "latitude_deg": 5.811906301013954e-05,
      "longitude_deg": 116.40687786692479,
      "height_km": 476.0004147750851,
      "semi_major_axis_km": 6853.396913812923,
      "eccentricity": 0.00012913,
      "inclination_deg": 53.1598,
      "raan_deg": 186.6561,
      "arg_perigee_deg": 79.7458,
      "mean_anomaly_deg": 280.3689,
      "mean_motion_rev_day": 15.30184981
    },
    {
      "epoch": "2026-03-31T12:31:27.368256Z",
      "apogee_km": 475.6324459475827,
      "perigee_km": 474.93764602056126,
      "latitude_deg": -2.2308083731784097e-05,
      "longitude_deg": 165.95202703232093,
      "height_km": 476.1376258370407,
      "semi_major_axis_km": 6853.422045984072,
      "eccentricity": 5.069e-05,
      "inclination_deg": 53.1614,
      "raan_deg": 182.7141,
      "arg_perigee_deg": 82.2824,
      "mean_anomaly_deg": 277.8234,
      "mean_motion_rev_day": 15.30176564
    },
    {
      "epoch": "2026-04-01T12:02:14.644032Z",
      "apogee_km": 475.9698153650588,
      "perigee_km": 474.536086187356,
      "latitude_deg": -3.251598950300586e-05,
      "longitude_deg": 167.73748829207764,
      "height_km": 476.0517806347704,
      "semi_major_axis_km": 6853.389950776207,
      "eccentricity": 0.0001046,
      "inclination_deg": 53.1613,
      "raan_deg": 178.1622,
      "arg_perigee_deg": 82.0052,
      "mean_anomaly_deg": 278.1067,
      "mean_motion_rev_day": 15.30187313
    },
    {
      "epoch": "2026-04-02T14:41:08.750112Z",
      "apogee_km": 476.1406057276781,
      "perigee_km": 474.3661258941629,
      "latitude_deg": -5.155922828749222e-05,
      "longitude_deg": 121.75982377506662,
      "height_km": 476.2766118056078,
      "semi_major_axis_km": 6853.39036581092,
      "eccentricity": 0.00012946,
      "inclination_deg": 53.1617,
      "raan_deg": 173.0044,
      "arg_perigee_deg": 98.0994,
      "mean_anomaly_deg": 262.0153,
      "mean_motion_rev_day": 15.30187174
    },
    {
      "epoch": "2026-04-02T22:31:23.972160Z",
      "apogee_km": 475.7764366706333,
      "perigee_km": 474.65673576171775,
      "latitude_deg": -1.09077685854229e-05,
      "longitude_deg": 2.3570518680105206,
      "height_km": 476.2383036710188,
      "semi_major_axis_km": 6853.353586216175,
      "eccentricity": 8.169e-05,
      "inclination_deg": 53.1636,
      "raan_deg": 171.4869,
      "arg_perigee_deg": 102.652,
      "mean_anomaly_deg": 257.4572,
      "mean_motion_rev_day": 15.30199492
    },
    {
      "epoch": "2026-04-03T12:37:55.331040Z",
      "apogee_km": 476.2426426423117,
      "perigee_km": 474.382342312073,
      "latitude_deg": -1.0745365700125794e-05,
      "longitude_deg": 147.41616582820026,
      "height_km": 476.2482020946629,
      "semi_major_axis_km": 6853.449492477192,
      "eccentricity": 0.00013572,
      "inclination_deg": 53.1616,
      "raan_deg": 168.7561,
      "arg_perigee_deg": 92.3163,
      "mean_anomaly_deg": 267.7993,
      "mean_motion_rev_day": 15.30167372
    },
    {
      "epoch": "2026-04-04T12:08:39.389280Z",
      "apogee_km": 476.09984756810445,
      "perigee_km": 474.2053241949834,
      "latitude_deg": 4.881708282689266e-06,
      "longitude_deg": 149.21598763430083,
      "height_km": 476.6325304870347,
      "semi_major_axis_km": 6853.289585881544,
      "eccentricity": 0.00013822,
      "inclination_deg": 53.1616,
      "raan_deg": 164.2051,
      "arg_perigee_deg": 127.867,
      "mean_anomaly_deg": 232.2456,
      "mean_motion_rev_day": 15.30220927
    },
    {
      "epoch": "2026-04-05T13:13:32.026368Z",
      "apogee_km": 475.90376011642275,
      "perigee_km": 474.5961338869356,
      "latitude_deg": 3.185443949870158e-05,
      "longitude_deg": 127.1139331737665,
      "height_km": 476.4634310391351,
      "semi_major_axis_km": 6853.386947001679,
      "eccentricity": 9.54e-05,
      "inclination_deg": 53.1599,
      "raan_deg": 159.3524,
      "arg_perigee_deg": 118.7876,
      "mean_anomaly_deg": 241.3221,
      "mean_motion_rev_day": 15.30188319
    },
    {
      "epoch": "2026-04-05T21:03:48.959136Z",
      "apogee_km": 476.22376871077086,
      "perigee_km": 474.32784059249116,
      "latitude_deg": -1.7398616611694777e-05,
      "longitude_deg": 7.704245956821883,
      "height_km": 476.18294440239055,
      "semi_major_axis_km": 6853.412804651631,
      "eccentricity": 0.00013832,
      "inclination_deg": 53.1605,
      "raan_deg": 157.8352,
      "arg_perigee_deg": 90.5544,
      "mean_anomaly_deg": 269.5615,
      "mean_motion_rev_day": 15.30179659
    },
    {
      "epoch": "2026-04-07T13:49:11.554752Z",
      "apogee_km": 476.00874865600053,
      "perigee_km": 474.4420700092278,
      "latitude_deg": 9.564775651308724e-06,
      "longitude_deg": 106.8002124539082,
      "height_km": 475.9369537610104,
      "semi_major_axis_km": 6853.362409332614,
      "eccentricity": 0.0001143,
      "inclination_deg": 53.1611,
      "raan_deg": 149.9491,
      "arg_perigee_deg": 76.1989,
      "mean_anomaly_deg": 283.9139,
      "mean_motion_rev_day": 15.30196537
    },
    {
      "epoch": "2026-04-07T13:49:11.555616Z",
      "apogee_km": 476.008680122377,
      "perigee_km": 474.44213854285226,
      "latitude_deg": 1.0448102407352262e-05,
      "longitude_deg": 106.80020950215439,
      "height_km": 475.936970111418,
      "semi_major_axis_km": 6853.362409332614,
      "eccentricity": 0.00011429,
      "inclination_deg": 53.1611,
      "raan_deg": 149.9491,
      "arg_perigee_deg": 76.1989,
      "mean_anomaly_deg": 283.9139,
      "mean_motion_rev_day": 15.30196537
    },
    {
      "epoch": "2026-04-08T13:19:59.628864Z",
      "apogee_km": 475.82390236395713,
      "perigee_km": 474.6444371856387,
      "latitude_deg": 8.200317786661765e-06,
      "longitude_deg": 108.5800405462349,
      "height_km": 475.7593037706145,
      "semi_major_axis_km": 6853.371169774798,
      "eccentricity": 8.605e-05,
      "inclination_deg": 53.1593,
      "raan_deg": 145.3949,
      "arg_perigee_deg": 50.6815,
      "mean_anomaly_deg": 309.4262,
      "mean_motion_rev_day": 15.30193603
    },
    {
      "epoch": "2026-04-09T09:42:41.171616Z",
      "apogee_km": 475.9216023129875,
      "perigee_km": 474.5473642631596,
      "latitude_deg": 2.2044406427349926e-05,
      "longitude_deg": 158.12785031522378,
      "height_km": 475.9567956849157,
      "semi_major_axis_km": 6853.371483288073,
      "eccentricity": 0.00010026,
      "inclination_deg": 53.1606,
      "raan_deg": 141.4527,
      "arg_perigee_deg": 75.1388,
      "mean_anomaly_deg": 284.9724,
      "mean_motion_rev_day": 15.30193498
    },
    {
      "epoch": "2026-04-11T21:16:42.740256Z",
      "apogee_km": 476.03403108376006,
      "perigee_km": 474.49612765714846,
      "latitude_deg": 1.4605212409994304e-05,
      "longitude_deg": -29.35323069312195,
      "height_km": 475.9062959608627,
      "semi_major_axis_km": 6853.402079370454,
      "eccentricity": 0.0001122,
      "inclination_deg": 53.1604,
      "raan_deg": 129.9245,
      "arg_perigee_deg": 70.4601,
      "mean_anomaly_deg": 289.6521,
      "mean_motion_rev_day": 15.30183251
    },
    {
      "epoch": "2026-04-13T07:45:52.943616Z",
      "apogee_km": 475.98465365591073,
      "perigee_km": 474.5784692354737,
      "latitude_deg": 3.805870397627108e-05,
      "longitude_deg": 165.26327570793805,
      "height_km": 476.0605322315475,
      "semi_major_axis_km": 6853.418561445692,
      "eccentricity": 0.00010259,
      "inclination_deg": 53.1597,
      "raan_deg": 123.2498,
      "arg_perigee_deg": 80.2217,
      "mean_anomaly_deg": 279.89,
      "mean_motion_rev_day": 15.30177731
    },
    {
      "epoch": "2026-04-14T18:15:03.179808Z",
      "apogee_km": 476.1493875805627,
      "perigee_km": 474.3469472815286,
      "latitude_deg": 7.487983061996297e-06,
      "longitude_deg": -0.12049327491333842,
      "height_km": 476.07466156626333,
      "semi_major_axis_km": 6853.385167431045,
      "eccentricity": 0.0001315,
      "inclination_deg": 53.1598,
      "raan_deg": 116.575,
      "arg_perigee_deg": 85.4496,
      "mean_anomaly_deg": 274.6655,
      "mean_motion_rev_day": 15.30188915
    }
  ]
}